GOES 14                 
1 35491U 09033A   24131.34098141 -.00000067  00000+0  00000+0 0  9990
2 35491   0.2512 108.2364 0003369 325.5091 168.9537  1.00270626 54411
